OBJECT_NAME,OBJECT_ID,EPOCH,MEAN_MOTION,ECCENTRICITY,INCLINATION,RA_OF_ASC_NODE,ARG_OF_PERICENTER,MEAN_ANOMALY,EPHEMERIS_TYPE,CLASSIFICATION_TYPE,NORAD_CAT_ID,ELEMENT_SET_NO,REV_AT_EPOCH,BSTAR,MEAN_MOTION_DOT,MEAN_MOTION_DDOT
STARLINK-30978,2023-186T,2026-07-18T19:58:30.238752,15.27574673,.0001565,43.0047,42.9489,273.7504,86.3168,0,U,58490,999,14594,.2809E-4,.511E-5,0
STARLINK-30953,2023-186U,2026-07-18T11:38:37.186368,15.27580784,.00015014,43.0007,248.8376,267.5546,92.5134,0,U,58491,999,14789,.20410733E-4,.3E-5,0
STARLINK-30986,2023-186V,2026-07-18T07:19:41.701728,15.27576449,.00021611,43.0054,45.8749,265.5849,94.4756,0,U,58492,999,14586,.40413026E-4,.85E-5,0
STARLINK-30985,2023-186W,2026-07-18T13:25:13.761984,15.27547353,.0002006,43.0058,44.3384,257.2544,102.8083,0,U,58493,999,14590,.40057E-3,.10766E-3,0
STARLINK-30981,2023-186X,2026-07-18T14:53:50.069760,15.27574184,.0001167,43.0045,43.9379,263.3956,96.6763,0,U,58494,999,14591,.24691E-4,.417E-5,0
STARLINK-31002,2023-186Y,2026-07-18T20:33:39.667104,15.27560808,.0000561,42.9984,43.1245,234.2152,125.8647,0,U,58495,999,14611,.31768E-4,.612E-5,0
XINGCHI-1 02A,2023-187A,2026-07-18T19:43:17.256864,14.84350202,.0012408,97.9258,282.4749,47.4573,312.7687,0,U,58496,999,14181,.81834E-4,.633E-5,0
MISRSAT-2,2023-187B,2026-07-18T19:57:38.075616,14.83311167,.0011891,97.9265,281.5165,49.6114,310.6136,0,U,58497,999,14173,.65985E-4,.487E-5,0
XINGCHI-1 02B,2023-187C,2026-07-18T20:50:40.656768,14.85893845,.0011386,97.9292,283.8431,43.4881,316.7230,0,U,58498,999,14188,.82929E-4,.668E-5,0
DOORY-SAT,2023-188A,2026-07-18T21:27:33.154272,14.80690170,.0008154,46.9803,139.5588,192.8517,167.2170,0,U,58500,999,14169,.80126E-4,.416E-5,0
2023-189A,2023-189A,2026-07-18T21:29:24.220608,15.33548508,.0012353,97.4368,218.3360,139.4367,220.7798,0,U,58502,999,14607,.73625E-4,.2312E-4,0
CHUANGXIN 19 (CX-19),2023-190A,2026-07-18T20:20:14.121888,13.39553815,.0001907,86.5062,321.6253,86.7512,273.3849,0,U,58505,999,12893,.67631E-4,.52E-6,0
STARLINK-31026,2023-191A,2026-07-18T18:04:41.153376,15.27576209,.0001283,43.0035,90.2570,277.2929,82.7777,0,U,58508,999,14543,.20378E-4,.299E-5,0
STARLINK-31020,2023-191B,2026-07-18T17:48:01.843200,15.27576810,.0001493,43.0023,90.1764,274.5253,85.5428,0,U,58509,999,14543,-.83004E-5,-.491E-5,0
STARLINK-30989,2023-191C,2026-07-18T16:39:21.538656,15.27577488,.0000473,43.0016,83.8587,262.3258,97.7540,0,U,58510,999,14553,-.13787E-5,-.3E-5,0
STARLINK-30968,2023-191D,2026-07-18T16:44:54.134592,15.27574543,.0001173,43.0006,83.8843,267.1678,92.9039,0,U,58511,999,14550,.66755E-4,.1575E-4,0
STARLINK-30982,2023-191E,2026-07-18T16:50:27.152160,15.27571521,.0001185,43.0002,83.9117,263.5832,96.4885,0,U,58512,999,14550,.65027E-4,.1527E-4,0
STARLINK-30998,2023-191F,2026-07-18T16:54:09.175104,15.27588174,.0000936,42.9973,83.9319,257.1294,102.9452,0,U,58513,999,14553,-.75833E-4,-.2348E-4,0
STARLINK-30983,2023-191G,2026-07-18T02:06:02.322432,15.27578735,.00014483,43.0042,87.0469,265.1508,94.9179,0,U,58514,999,14506,.33876603E-4,.67E-5,0
STARLINK-31017,2023-191H,2026-07-18T02:23:54.933504,15.27574430,.00014444,43.0029,214.6751,279.7192,80.3497,0,U,58515,999,14812,-.1591255E-4,-.7E-5,0
STARLINK-31028,2023-191J,2026-07-18T01:25:20.093376,15.27571713,.00008431,43.0019,86.8354,273.1611,86.9145,0,U,58516,999,14541,.2857443E-5,-.183E-5,0
STARLINK-31011,2023-191K,2026-07-18T01:19:46.470144,15.27584823,.00011754,43.0025,86.8140,269.9085,90.1632,0,U,58517,999,14541,-.17963733E-4,-.756E-5,0
STARLINK-31021,2023-191L,2026-07-18T16:33:47.859264,15.27576704,.0001328,43.0022,83.8038,275.6647,84.4053,0,U,58518,999,14550,.50004E-5,-.125E-5,0
STARLINK-31010,2023-191M,2026-07-18T16:28:14.040768,15.27577496,.0001249,43.0024,83.7408,258.1850,101.8862,0,U,58519,999,14550,.37873E-4,.78E-5,0
STARLINK-31003,2023-191N,2026-07-18T01:17:56.348160,15.27569564,.00009784,43.0036,86.8021,248.8515,111.2232,0,U,58520,999,14541,-.27691938E-4,-.1024E-4,0
STARLINK-31015,2023-191P,2026-07-18T17:05:02.792832,15.27580329,.0001078,43.0001,83.1424,266.3100,93.7628,0,U,58521,999,14548,.25038E-3,.6634E-4,0
STARLINK-30932,2023-191R,2026-07-18T01:34:35.307552,15.27569354,.00010507,42.9996,86.8851,239.2348,120.8400,0,U,58523,999,14536,-.15581654E-4,-.691E-5,0
STARLINK-30992,2023-191S,2026-07-18T18:55:52.001184,15.27567389,.0000897,43.0017,82.8487,244.0858,115.9901,0,U,58524,999,14552,-.43873E-4,-.1468E-4,0
STARLINK-30948,2023-191T,2026-07-18T17:25:23.795904,15.27577331,.0001107,43.0037,83.2396,271.7881,88.2844,0,U,58525,999,14551,.22229E-4,.35E-5,0
STARLINK-31013,2023-191U,2026-07-18T17:58:37.797312,15.10882783,.0008324,42.9996,106.4123,179.3690,180.7167,0,U,58526,999,14524,.51219E-3,.847E-4,0
