STARLINK-30978          
1 58490U 23186T   26199.83229443  .00000511  00000+0  28090-4 0  9997
2 58490  43.0047  42.9489 0001565 273.7504  86.3168 15.27574673145949
STARLINK-30953          
1 58491U 23186U   26199.48515262  .00000300  00000+0  20411-4 0  9991
2 58491  43.0007 248.8376 0001501 267.5546  92.5134 15.27580784147893
STARLINK-30986          
1 58492U 23186V   26199.30534377  .00000850  00000+0  40413-4 0  9995
2 58492  43.0054  45.8749 0002161 265.5849  94.4756 15.27576449145861
STARLINK-30985          
1 58493U 23186W   26199.55918706  .00010766  00000+0  40057-3 0  9995
2 58493  43.0058  44.3384 0002006 257.2544 102.8083 15.27547353145907
STARLINK-30981          
1 58494U 23186X   26199.62071840  .00000417  00000+0  24691-4 0  9992
2 58494  43.0045  43.9379 0001167 263.3956  96.6763 15.27574184145913
STARLINK-31002          
1 58495U 23186Y   26199.85670911  .00000612  00000+0  31768-4 0  9992
2 58495  42.9984  43.1245 0000561 234.2152 125.8647 15.27560808146117
XINGCHI-1 02A           
1 58496U 23187A   26199.82172751  .00000633  00000+0  81834-4 0  9992
2 58496  97.9258 282.4749 0012408  47.4573 312.7687 14.84350202141813
MISRSAT-2               
1 58497U 23187B   26199.83169069  .00000487  00000+0  65985-4 0  9998
2 58497  97.9265 281.5165 0011891  49.6114 310.6136 14.83311167141737
XINGCHI-1 02B           
1 58498U 23187C   26199.86852612  .00000668  00000+0  82929-4 0  9993
2 58498  97.9292 283.8431 0011386  43.4881 316.7230 14.85893845141889
DOORY-SAT               
1 58500U 23188A   26199.89413373  .00000416  00000+0  80126-4 0  9996
2 58500  46.9803 139.5588 0008154 192.8517 167.2170 14.80690170141691
2023-189A               
1 58502U 23189A   26199.89541922  .00002312  00000+0  73625-4 0  9994
2 58502  97.4368 218.3360 0012353 139.4367 220.7798 15.33548508146074
CHUANGXIN 19 (CX-19)    
1 58505U 23190A   26199.84738567  .00000052  00000+0  67631-4 0  9996
2 58505  86.5062 321.6253 0001907  86.7512 273.3849 13.39553815128932
STARLINK-31026          
1 58508U 23191A   26199.75325409  .00000299  00000+0  20378-4 0  9997
2 58508  43.0035  90.2570 0001283 277.2929  82.7777 15.27576209145437
STARLINK-31020          
1 58509U 23191B   26199.74168800 -.00000491  00000+0 -83004-5 0  9999
2 58509  43.0023  90.1764 0001493 274.5253  85.5428 15.27576810145434
STARLINK-30989          
1 58510U 23191C   26199.69399929 -.00000300  00000+0 -13787-5 0  9993
2 58510  43.0016  83.8587 0000473 262.3258  97.7540 15.27577488145530
STARLINK-30968          
1 58511U 23191D   26199.69784878  .00001575  00000+0  66755-4 0  9990
2 58511  43.0006  83.8843 0001173 267.1678  92.9039 15.27574543145508
STARLINK-30982          
1 58512U 23191E   26199.70170315  .00001527  00000+0  65027-4 0  9996
2 58512  43.0002  83.9117 0001185 263.5832  96.4885 15.27571521145506
STARLINK-30998          
1 58513U 23191F   26199.70427286 -.00002348  00000+0 -75833-4 0  9999
2 58513  42.9973  83.9319 0000936 257.1294 102.9452 15.27588174145538
STARLINK-30983          
1 58514U 23191G   26199.08752688  .00000670  00000+0  33877-4 0  9994
2 58514  43.0042  87.0469 0001448 265.1508  94.9179 15.27578735145061
STARLINK-31017          
1 58515U 23191H   26199.09994136 -.00000700  00000+0 -15913-4 0  9999
2 58515  43.0029 214.6751 0001444 279.7192  80.3497 15.27574430148125
STARLINK-31028          
1 58516U 23191J   26199.05926034 -.00000183  00000+0  28574-5 0  9990
2 58516  43.0019  86.8354 0000843 273.1611  86.9145 15.27571713145411
STARLINK-31011          
1 58517U 23191K   26199.05539896 -.00000756  00000+0 -17964-4 0  9994
2 58517  43.0025  86.8140 0001175 269.9085  90.1632 15.27584823145413
STARLINK-31021          
1 58518U 23191L   26199.69013726 -.00000125  00000+0  50004-5 0  9996
2 58518  43.0022  83.8038 0001328 275.6647  84.4053 15.27576704145504
STARLINK-31010          
1 58519U 23191M   26199.68627362  .00000780  00000+0  37873-4 0  9997
2 58519  43.0024  83.7408 0001249 258.1850 101.8862 15.27577496145502
STARLINK-31003          
1 58520U 23191N   26199.05412440 -.00001024  00000+0 -27692-4 0  9991
2 58520  43.0036  86.8021 0000978 248.8515 111.2232 15.27569564145417
STARLINK-31015          
1 58521U 23191P   26199.71183788  .00006634  00000+0  25038-3 0  9996
2 58521  43.0001  83.1424 0001078 266.3100  93.7628 15.27580329145486
STARLINK-30932          
1 58523U 23191R   26199.06568643 -.00000691  00000+0 -15582-4 0  9996
2 58523  42.9996  86.8851 0001050 239.2348 120.8400 15.27569354145368
STARLINK-30992          
1 58524U 23191S   26199.78879631 -.00001468  00000+0 -43873-4 0  9995
2 58524  43.0017  82.8487 0000897 244.0858 115.9901 15.27567389145529
STARLINK-30948          
1 58525U 23191T   26199.72596986  .00000350  00000+0  22229-4 0  9998
2 58525  43.0037  83.2396 0001107 271.7881  88.2844 15.27577331145519
STARLINK-31013          
1 58526U 23191U   26199.74904858  .00008470  00000+0  51219-3 0  9993
2 58526  42.9996 106.4123 0008324 179.3690 180.7167 15.10882783145245
